NORAD_CAT_ID,OBJECT_NAME,OBJECT_TYPE,EPOCH,MEAN_MOTION,ECCENTRICITY,INCLINATION,RA_OF_ASC_NODE,ARG_OF_PERICENTER,MEAN_ANOMALY,BSTAR,MEAN_MOTION_DOT,MEAN_MOTION_DDOT,TLE_LINE0,TLE_LINE1,TLE_LINE2,SEMIMAJOR_AXIS,PERIOD,APOGEE,PERIGEE,DECAYED
40536,KOMPSAT 3A,PAYLOAD,2021-05-07 20:03:09,15.12222305,0.0003952,97.5772,70.0843,112.5829,304.5504,5.149100000000001e-05,8.24e-06,0.0,0 KOMPSAT 3A,1 40536U 15014A   21127.83553170  .00000824  00000-0  51491-4 0  9992,2 40536  97.5772  70.0843 0003952 112.5829 304.5504 15.12222305337744,6907.561,95.22399999999999,532.156,526.696,0.0
40536,KOMPSAT 3A,PAYLOAD,2021-05-08 02:41:09,15.12222881,0.00039569999999999997,97.5772,70.3586,112.2647,8.5706,5.2204e-05,8.37e-06,0.0,0 KOMPSAT 3A,1 40536U 15014A   21128.11191889  .00000837  00000-0  52204-4 0  9996,2 40536  97.5772  70.3586 0003957 112.2647   8.5706 15.12222881337789,6907.56,95.22399999999999,532.158,526.691,0.0
40536,KOMPSAT 3A,PAYLOAD,2021-05-08 11:58:25,15.12223432,0.00039830000000000003,97.5773,70.7427,110.9899,315.2634,5.1824e-05,8.3e-06,0.0,0 KOMPSAT 3A,1 40536U 15014A   21128.49890441  .00000830  00000-0  51824-4 0  9997,2 40536  97.5773  70.7427 0003983 110.9899 315.2634 15.12223432337849,6907.558000000001,95.22399999999999,532.174,526.672,0.0
40536,KOMPSAT 3A,PAYLOAD,2021-05-08 19:59:42,15.12223582,0.00040149999999999995,97.5771,71.0744,110.4067,334.2269,4.9313999999999996e-05,7.87e-06,0.0,0 KOMPSAT 3A,1 40536U 15014A   21128.83313132  .00000787  00000-0  49314-4 0  9994,2 40536  97.5771  71.0744 0004015 110.4067 334.2269 15.12223582337898,6907.557,95.22399999999999,532.196,526.649,0.0
40536,KOMPSAT 3A,PAYLOAD,2021-05-09 02:31:03,15.122237900000002,0.0004053,97.5771,71.3441,110.4385,12.8032,4.7711000000000004e-05,7.59e-06,0.0,0 KOMPSAT 3A,1 40536U 15014A   21129.10490622  .00000759  00000-0  47711-4 0  9993,2 40536  97.5771  71.3441 0004053 110.4385  12.8032 15.12223790337933,6907.557,95.22399999999999,532.221,526.622,0.0
40536,KOMPSAT 3A,PAYLOAD,2021-05-09 10:32:09,15.12223715,0.00040300000000000004,97.5772,71.6755,109.9278,30.9564,4.3549e-05,6.87e-06,0.0,0 KOMPSAT 3A,1 40536U 15014A   21129.43899757  .00000687  00000-0  43549-4 0  9996,2 40536  97.5772  71.6755 0004030 109.9278  30.9564 15.12223715337987,6907.557,95.22399999999999,532.206,526.638,0.0
40536,KOMPSAT 3A,PAYLOAD,2021-05-09 19:40:27,15.12223235,0.00041479999999999995,97.57700000000001,72.0534,109.8196,302.6563,3.6008000000000005e-05,5.57e-06,0.0,0 KOMPSAT 3A,1 40536U 15014A   21129.81976612  .00000557  00000-0  36008-4 0  9992,2 40536  97.5770  72.0534 0004148 109.8196 302.6563 15.12223235338046,6907.558000000001,95.22399999999999,532.289,526.558,0.0
40536,KOMPSAT 3A,PAYLOAD,2021-05-09 21:24:17,15.12223236,0.0004152,97.5771,72.125,109.1369,335.6306,3.5394e-05,5.46e-06,0.0,0 KOMPSAT 3A,1 40536U 15014A   21129.89187124  .00000546  00000-0  35394-4 0  9997,2 40536  97.5771  72.1250 0004152 109.1369 335.6306 15.12223236338056,6907.558000000001,95.22399999999999,532.2909999999998,526.555,0.0
40536,KOMPSAT 3A,PAYLOAD,2021-05-10 02:12:52,15.12223087,0.0004191,97.57700000000001,72.3236,109.4433,345.6119,3.2331e-05,4.94e-06,0.0,0 KOMPSAT 3A,1 40536U 15014A   21130.09227120  .00000494  00000-0  32331-4 0  9992,2 40536  97.5770  72.3236 0004191 109.4433 345.6119 15.12223087338089,6907.559,95.22399999999999,532.319,526.529,0.0
40536,KOMPSAT 3A,PAYLOAD,2021-05-10 13:25:09,15.12222888,0.0004207,97.5771,72.7869,108.9334,6.105,2.7703000000000002e-05,4.14e-06,0.0,0 KOMPSAT 3A,1 40536U 15014A   21130.55913223  .00000414  00000-0  27703-4 0  9998,2 40536  97.5771  72.7869 0004207 108.9334   6.1050 15.12222888338157,6907.56,95.22399999999999,532.331,526.519,0.0
40536,KOMPSAT 3A,PAYLOAD,2021-05-10 21:00:39,15.12222417,0.0004242,97.5772,73.1008,107.3987,288.6254,2.1848e-05,3.13e-06,0.0,0 KOMPSAT 3A,1 40536U 15014A   21130.87545795  .00000313  00000-0  21848-4 0  9990,2 40536  97.5772  73.1008 0004242 107.3987 288.6254 15.12222417338201,6907.561,95.22399999999999,532.356,526.496,0.0
40536,KOMPSAT 3A,PAYLOAD,2021-05-11 03:45:12,15.12222182,0.00042669999999999996,97.5772,73.3797,106.523,17.9638,1.8656e-05,2.57e-06,0.0,0 KOMPSAT 3A,1 40536U 15014A   21131.15639684  .00000257  00000-0  18656-4 0  9993,2 40536  97.5772  73.3797 0004267 106.5230  17.9638 15.12222182338249,6907.562,95.22399999999999,532.374,526.479,0.0
40536,KOMPSAT 3A,PAYLOAD,2021-05-11 11:44:23,15.12222357,0.0004276,97.5769,73.7094,106.0927,28.8014,1.8125e-05,2.48e-06,0.0,0 KOMPSAT 3A,1 40536U 15014A   21131.48915794  .00000248  00000-0  18125-4 0  9999,2 40536  97.5769  73.7094 0004276 106.0927  28.8014 15.12222357338295,6907.561,95.22399999999999,532.38,526.472,0.0
40536,KOMPSAT 3A,PAYLOAD,2021-05-11 19:18:47,15.122658900000001,0.0004,97.5329,74.0206,107.227,304.5509,-0.00083841,-0.00014527,0.0,0 KOMPSAT 3A,1 40536U 15014A   21131.80471682 -.00014527  00000-0 -83841-3 0  9991,2 40536  97.5329  74.0206 0004000 107.2270 304.5509 15.12265890338343,6907.429,95.221,532.057,526.531,0.0
40536,KOMPSAT 3A,PAYLOAD,2021-05-12 05:12:50,15.12222397,0.0004274,97.5769,74.4321,102.8457,33.2895,1.4565e-05,1.87e-06,0.0,0 KOMPSAT 3A,1 40536U 15014A   21132.21725252  .00000187  00000-0  14565-4 0  9995,2 40536  97.5769  74.4321 0004274 102.8457  33.2895 15.12222397338400,6907.561,95.22399999999999,532.378,526.474,0.0
40536,KOMPSAT 3A,PAYLOAD,2021-05-12 13:04:25,15.12249678,0.000413,97.5336,74.7519,105.1204,12.8635,-0.00037491,-6.536e-05,0.0,0 KOMPSAT 3A,1 40536U 15014A   21132.54473711 -.00006536  00000-0 -37491-3 0  9999,2 40536  97.5336  74.7519 0004130 105.1204  12.8635 15.12249678338450,6907.478,95.22200000000001,532.196,526.49,0.0
40536,KOMPSAT 3A,PAYLOAD,2021-05-12 20:52:12,15.12274937,0.00040139999999999994,97.551,75.0699,97.12299999999999,348.2928,0.00064846,0.00011165,0.0,0 KOMPSAT 3A,1 40536U 15014A   21132.86958859  .00011165  00000-0  64846-3 0  9991,2 40536  97.5510  75.0699 0004014  97.1230 348.2928 15.12274937338500,6907.401,95.221,532.039,526.493,0.0
40536,KOMPSAT 3A,PAYLOAD,2021-05-13 05:02:14,15.12277485,0.0003956,97.54700000000001,75.4067,95.5663,41.3077,0.00057153,9.831e-05,0.0,0 KOMPSAT 3A,1 40536U 15014A   21133.20988545  .00009831  00000-0  57153-3 0  9995,2 40536  97.5470  75.4067 0003956  95.5663  41.3077 15.12277485338556,6907.393,95.221,531.991,526.526,0.0
40536,KOMPSAT 3A,PAYLOAD,2021-05-13 12:51:45,15.12271981,0.0003793,97.5429,75.7248,96.8348,13.9962,0.00037615,6.445e-05,0.0,0 KOMPSAT 3A,1 40536U 15014A   21133.53594028  .00006445  00000-0  37615-3 0  9999,2 40536  97.5429  75.7248 0003793  96.8348  13.9962 15.12271981338606,6907.41,95.221,531.895,526.655,0.0
40536,KOMPSAT 3A,PAYLOAD,2021-05-13 20:41:18,15.12268553,0.0003923,97.536,76.0509,99.9896,344.9434,0.00020104,3.413e-05,0.0,0 KOMPSAT 3A,1 40536U 15014A   21133.86201919  .00003413  00000-0  20104-3 0  9996,2 40536  97.5360  76.0509 0003923  99.9896 344.9434 15.12268553338658,6907.42,95.221,531.995,526.576,0.0
40536,KOMPSAT 3A,PAYLOAD,2021-05-14 04:44:25,15.12265926,0.0004016,97.5338,76.3831,100.5584,9.7071,9.5664e-05,1.59e-05,0.0,0 KOMPSAT 3A,1 40536U 15014A   21134.19751487  .00001590  00000-0  95664-4 0  9991,2 40536  97.5338  76.3831 0004016 100.5584   9.7071 15.12265926338701,6907.428000000001,95.221,532.068,526.519,0.0
40536,KOMPSAT 3A,PAYLOAD,2021-05-14 12:41:36,15.12265251,0.0004096,97.5342,76.7101,100.7833,12.4312,7.3209e-05,1.202e-05,0.0,0 KOMPSAT 3A,1 40536U 15014A   21134.52889661  .00001202  00000-0  73209-4 0  9995,2 40536  97.5342  76.7101 0004096 100.7833  12.4312 15.12265251338752,6907.431,95.221,532.125,526.466,0.0
40536,KOMPSAT 3A,PAYLOAD,2021-05-14 22:02:49,15.12267402,0.0004106,97.53399999999999,77.0948,99.9418,333.6709,8.9492e-05,1.483e-05,0.0,0 KOMPSAT 3A,1 40536U 15014A   21134.91862388  .00001483  00000-0  89492-4 0  9997,2 40536  97.5340  77.0948 0004106  99.9418 333.6709 15.12267402338818,6907.424,95.221,532.125,526.453,0.0
40536,KOMPSAT 3A,PAYLOAD,2021-05-15 01:27:58,15.12267736,0.0004108000000000002,97.5341,77.2354,99.417,29.3387,8.7626e-05,1.451e-05,0.0,0 KOMPSAT 3A,1 40536U 15014A   21135.06109462  .00001451  00000-0  87626-4 0  9993,2 40536  97.5341  77.2354 0004108  99.4170  29.3387 15.12267736338837,6907.4230000000025,95.221,532.126,526.45,0.0
40536,KOMPSAT 3A,PAYLOAD,2021-05-15 13:59:01,15.12267478,0.000414,97.5342,77.7502,98.6763,347.7264,6.3085e-05,1.027e-05,0.0,0 KOMPSAT 3A,1 40536U 15014A   21135.58265255  .00001027  00000-0  63085-4 0  9995,2 40536  97.5342  77.7502 0004140  98.6763 347.7264 15.12267478338916,6907.424,95.221,532.148,526.429,0.0
40536,KOMPSAT 3A,PAYLOAD,2021-05-15 21:55:22,15.12268215,0.00041180000000000003,97.5344,78.0771,98.141,348.0971,5.7695e-05,9.33e-06,0.0,0 KOMPSAT 3A,1 40536U 15014A   21135.91346057  .00000933  00000-0  57695-4 0  9997,2 40536  97.5344  78.0771 0004118  98.1410 348.0971 15.12268215338963,6907.422,95.221,532.131,526.442,0.0
40536,KOMPSAT 3A,PAYLOAD,2021-05-16 10:51:29,15.12268208,0.00043410000000000003,97.5338,78.6093,97.04799999999999,41.5531,4.8106e-05,7.68e-06,0.0,0 KOMPSAT 3A,1 40536U 15014A   21136.45242653  .00000768  00000-0  48106-4 0  9997,2 40536  97.5338  78.6093 0004341  97.0480  41.5531 15.12268208339041,6907.422,95.221,532.285,526.288,0.0
40536,KOMPSAT 3A,PAYLOAD,2021-05-16 21:44:26,15.12283808,0.00046849999999999995,97.5453,79.057,93.4173,352.2653,0.00021812,3.71e-05,0.0,0 KOMPSAT 3A,1 40536U 15014A   21136.90586576  .00003710  00000-0  21812-3 0  9996,2 40536  97.5453  79.0570 0004685  93.4173 352.2653 15.12283808339112,6907.374,95.22,532.475,526.003,0.0
40536,KOMPSAT 3A,PAYLOAD,2021-05-17 10:42:03,15.12266878,0.0004414,97.5333,79.5888,94.574,49.0849,-3.0253000000000013e-05,-5.87e-06,0.0,0 KOMPSAT 3A,1 40536U 15014A   21137.44587175 -.00000587  00000-0 -30253-4 0  9993,2 40536  97.5333  79.5888 0004414  94.5740  49.0849 15.12266878339192,6907.4259999999995,95.221,532.34,526.242,0.0
